{
  "updatedAt": "2026-03-20T16:26:01.420Z",
  "entries": {
    "korsat-2-62377": {
      "fetchedAt": "2026-03-20T16:26:01.420Z",
      "fleetEntry": {
        "id": "korsat-2-62377",
        "name": "KORSAT-2",
        "englishName": "KORSAT-2",
        "domesticName": "KORSAT-2",
        "color": "#ff9059",
        "norad": "62377",
        "orbitClass": "leo",
        "orbitLabel": "LEO",
        "missionType": "earth-observation",
        "missionLabel": "지구관측",
        "operationalStatus": "비현역",
        "objectId": "2024-247A",
        "launchDate": "2024-12-21",
        "sourceDate": "2026-03-20",
        "sourceLabel": "Space-Track cached GP",
        "omm": {
          "CCSDS_OMM_VERS": "3.0",
          "COMMENT": "GENERATED VIA SPACE-TRACK.ORG API",
          "CREATION_DATE": "2026-03-20T14:46:35",
          "ORIGINATOR": "18 SPCS",
          "OBJECT_NAME": "KORSAT-2",
          "OBJECT_ID": "2024-247A",
          "CENTER_NAME": "EARTH",
          "REF_FRAME": "TEME",
          "TIME_SYSTEM": "UTC",
          "MEAN_ELEMENT_THEORY": "SGP4",
          "EPOCH": "2026-03-20T06:31:43.802400",
          "MEAN_MOTION": 14.9899925,
          "ECCENTRICITY": 0.0008849,
          "INCLINATION": 45.4104,
          "RA_OF_ASC_NODE": 168.6921,
          "ARG_OF_PERICENTER": 114.5161,
          "MEAN_ANOMALY": 245.6641,
          "EPHEMERIS_TYPE": 0,
          "CLASSIFICATION_TYPE": "U",
          "NORAD_CAT_ID": 62377,
          "ELEMENT_SET_NO": 999,
          "REV_AT_EPOCH": 6822,
          "BSTAR": 0.0000254,
          "MEAN_MOTION_DOT": 8.2e-7,
          "MEAN_MOTION_DDOT": 0,
          "SEMIMAJOR_AXIS": "6948.124",
          "PERIOD": "96.064",
          "APOAPSIS": "576.137",
          "PERIAPSIS": "563.841",
          "OBJECT_TYPE": "PAYLOAD",
          "RCS_SIZE": "LARGE",
          "COUNTRY_CODE": "SKOR",
          "LAUNCH_DATE": "2024-12-21",
          "SITE": "AFWTR",
          "DECAY_DATE": null,
          "FILE": "5093802",
          "GP_ID": "316580814",
          "TLE_LINE0": "0 KORSAT-2",
          "TLE_LINE1": "1 62377U 24247A   26079.27203475  .00000082  00000-0  25400-4 0  9993",
          "TLE_LINE2": "2 62377  45.4104 168.6921 0008849 114.5161 245.6641 14.98999250 68228"
        }
      }
    },
    "jinjusat-1b-63210": {
      "fetchedAt": "2026-03-20T16:26:01.420Z",
      "fleetEntry": {
        "id": "jinjusat-1b-63210",
        "name": "JINJUSAT-1B",
        "englishName": "JINJUSAT-1B",
        "domesticName": "JINJUSAT-1B",
        "color": "#8bd0ff",
        "norad": "63210",
        "orbitClass": "leo",
        "orbitLabel": "LEO SSO",
        "missionType": "technology",
        "missionLabel": "기술실증/학술",
        "operationalStatus": "비현역",
        "objectId": "2025-052A",
        "launchDate": "2025-03-15",
        "sourceDate": "2026-03-20",
        "sourceLabel": "Space-Track cached GP",
        "omm": {
          "CCSDS_OMM_VERS": "3.0",
          "COMMENT": "GENERATED VIA SPACE-TRACK.ORG API",
          "CREATION_DATE": "2026-03-20T14:46:35",
          "ORIGINATOR": "18 SPCS",
          "OBJECT_NAME": "JINJUSAT-1B",
          "OBJECT_ID": "2025-052A",
          "CENTER_NAME": "EARTH",
          "REF_FRAME": "TEME",
          "TIME_SYSTEM": "UTC",
          "MEAN_ELEMENT_THEORY": "SGP4",
          "EPOCH": "2026-03-20T10:50:56.823648",
          "MEAN_MOTION": 15.30567187,
          "ECCENTRICITY": 0.0005142,
          "INCLINATION": 97.4107,
          "RA_OF_ASC_NODE": 336.2286,
          "ARG_OF_PERICENTER": 58.5633,
          "MEAN_ANOMALY": 301.611,
          "EPHEMERIS_TYPE": 0,
          "CLASSIFICATION_TYPE": "U",
          "NORAD_CAT_ID": 63210,
          "ELEMENT_SET_NO": 999,
          "REV_AT_EPOCH": 5651,
          "BSTAR": 0.00041142,
          "MEAN_MOTION_DOT": 0.00012093,
          "MEAN_MOTION_DDOT": 0,
          "SEMIMAJOR_AXIS": "6852.256",
          "PERIOD": "94.083",
          "APOAPSIS": "477.644",
          "PERIAPSIS": "470.598",
          "OBJECT_TYPE": "PAYLOAD",
          "RCS_SIZE": "SMALL",
          "COUNTRY_CODE": "SKOR",
          "LAUNCH_DATE": "2025-03-15",
          "SITE": "AFWTR",
          "DECAY_DATE": null,
          "FILE": "5093838",
          "GP_ID": "316582268",
          "TLE_LINE0": "0 JINJUSAT-1B",
          "TLE_LINE1": "1 63210U 25052A   26079.45204657  .00012093  00000-0  41142-3 0  9993",
          "TLE_LINE2": "2 63210  97.4107 336.2286 0005142  58.5633 301.6110 15.30567187 56516"
        }
      }
    },
    "korsat-3-63630": {
      "fetchedAt": "2026-03-20T16:26:01.420Z",
      "fleetEntry": {
        "id": "korsat-3-63630",
        "name": "KORSAT-3",
        "englishName": "KORSAT-3",
        "domesticName": "KORSAT-3",
        "color": "#f6bd60",
        "norad": "63630",
        "orbitClass": "leo",
        "orbitLabel": "LEO",
        "missionType": "earth-observation",
        "missionLabel": "지구관측",
        "operationalStatus": "비현역",
        "objectId": "2025-081A",
        "launchDate": "2025-04-22",
        "sourceDate": "2026-03-20",
        "sourceLabel": "Space-Track cached GP",
        "omm": {
          "CCSDS_OMM_VERS": "3.0",
          "COMMENT": "GENERATED VIA SPACE-TRACK.ORG API",
          "CREATION_DATE": "2026-03-20T14:46:35",
          "ORIGINATOR": "18 SPCS",
          "OBJECT_NAME": "KORSAT-3",
          "OBJECT_ID": "2025-081A",
          "CENTER_NAME": "EARTH",
          "REF_FRAME": "TEME",
          "TIME_SYSTEM": "UTC",
          "MEAN_ELEMENT_THEORY": "SGP4",
          "EPOCH": "2026-03-20T13:13:26.133888",
          "MEAN_MOTION": 14.99487025,
          "ECCENTRICITY": 0.0008517,
          "INCLINATION": 45.4113,
          "RA_OF_ASC_NODE": 75.3146,
          "ARG_OF_PERICENTER": 94.0558,
          "MEAN_ANOMALY": 266.1294,
          "EPHEMERIS_TYPE": 0,
          "CLASSIFICATION_TYPE": "U",
          "NORAD_CAT_ID": 63630,
          "ELEMENT_SET_NO": 999,
          "REV_AT_EPOCH": 4988,
          "BSTAR": 0.00026665,
          "MEAN_MOTION_DOT": 0.00003092,
          "MEAN_MOTION_DDOT": 0,
          "SEMIMAJOR_AXIS": "6946.617",
          "PERIOD": "96.033",
          "APOAPSIS": "574.399",
          "PERIAPSIS": "562.566",
          "OBJECT_TYPE": "PAYLOAD",
          "RCS_SIZE": "LARGE",
          "COUNTRY_CODE": "SKOR",
          "LAUNCH_DATE": "2025-04-22",
          "SITE": "AFETR",
          "DECAY_DATE": null,
          "FILE": "5093851",
          "GP_ID": "316581943",
          "TLE_LINE0": "0 KORSAT-3",
          "TLE_LINE1": "1 63630U 25081A   26079.55099692  .00003092  00000-0  26665-3 0  9995",
          "TLE_LINE2": "2 63630  45.4113  75.3146 0008517  94.0558 266.1294 14.99487025 49884"
        }
      }
    },
    "cas500-3-66655": {
      "fetchedAt": "2026-03-20T16:26:01.420Z",
      "fleetEntry": {
        "id": "cas500-3-66655",
        "name": "CAS500-3",
        "englishName": "CAS500-3",
        "domesticName": "CAS500-3",
        "color": "#f6bd60",
        "norad": "66655",
        "orbitClass": "leo",
        "orbitLabel": "LEO SSO",
        "missionType": "earth-observation",
        "missionLabel": "지구관측",
        "operationalStatus": "비현역",
        "objectId": "2025-274F",
        "launchDate": "2025-11-26",
        "sourceDate": "2026-03-20",
        "sourceLabel": "Space-Track cached GP",
        "omm": {
          "CCSDS_OMM_VERS": "3.0",
          "COMMENT": "GENERATED VIA SPACE-TRACK.ORG API",
          "CREATION_DATE": "2026-03-20T14:26:40",
          "ORIGINATOR": "18 SPCS",
          "OBJECT_NAME": "CAS500-3",
          "OBJECT_ID": "2025-274F",
          "CENTER_NAME": "EARTH",
          "REF_FRAME": "TEME",
          "TIME_SYSTEM": "UTC",
          "MEAN_ELEMENT_THEORY": "SGP4",
          "EPOCH": "2026-03-20T13:01:37.087104",
          "MEAN_MOTION": 14.88409751,
          "ECCENTRICITY": 0.0008524,
          "INCLINATION": 97.7413,
          "RA_OF_ASC_NODE": 9.6183,
          "ARG_OF_PERICENTER": 70.2237,
          "MEAN_ANOMALY": 289.9898,
          "EPHEMERIS_TYPE": 0,
          "CLASSIFICATION_TYPE": "U",
          "NORAD_CAT_ID": 66655,
          "ELEMENT_SET_NO": 999,
          "REV_AT_EPOCH": 1696,
          "BSTAR": 0.00016192,
          "MEAN_MOTION_DOT": 0.00001448,
          "MEAN_MOTION_DDOT": 0,
          "SEMIMAJOR_AXIS": "6981.041",
          "PERIOD": "96.748",
          "APOAPSIS": "608.856",
          "PERIAPSIS": "596.955",
          "OBJECT_TYPE": "PAYLOAD",
          "RCS_SIZE": null,
          "COUNTRY_CODE": "SKOR",
          "LAUNCH_DATE": "2025-11-26",
          "SITE": "NSC",
          "DECAY_DATE": null,
          "FILE": "5093128",
          "GP_ID": "316563982",
          "TLE_LINE0": "0 CAS500-3",
          "TLE_LINE1": "1 66655U 25274F   26079.54279036  .00001448  00000-0  16192-3 0  9997",
          "TLE_LINE2": "2 66655  97.7413   9.6183 0008524  70.2237 289.9898 14.88409751 16960"
        }
      }
    }
  }
}